{"type":"FeatureCollection","features":[{"type":"Feature","properties":{"id":"osm-loop-1","name":"Центр Москвы · маршрут 1","source":"OpenStreetMap / OpenFreeMap"},"geometry":{"type":"LineString","coordinates":[[37.61205912,55.75886487],[37.61251509,55.75848454],[37.61271894,55.7582974],[37.61305153,55.75797744],[37.61319101,55.75786877],[37.61341631,55.75772086],[37.61360943,55.75761219],[37.61408687,55.75735864],[37.61471987,55.75704169],[37.61482179,55.75699037],[37.61495054,55.75695113],[37.61496127,55.7570115],[37.61494517,55.75705678],[37.61491299,55.75710206],[37.61483788,55.75714734],[37.61451602,55.7573043],[37.61404395,55.75754579],[37.6134485,55.75787481],[37.61331439,55.7579714],[37.61316419,55.75809818],[37.61238635,55.75883166],[37.61192501,55.75928141],[37.61091113,55.76031067],[37.60979533,55.76140932],[37.60926425,55.76188318],[37.60899067,55.76211558],[37.60839522,55.76259547],[37.60640502,55.76415884],[37.60597587,55.76449384],[37.60584176,55.7645874],[37.60568619,55.76468397],[37.60540187,55.76483487],[37.60520339,55.76477451],[37.60556817,55.76457231],[37.60575056,55.7644697],[37.60586858,55.76439123],[37.60612607,55.76418902],[37.60740817,55.76319004],[37.60822892,55.76251398],[37.6090765,55.76181376],[37.6081109,55.76146365],[37.60794461,55.76139423],[37.60769248,55.76126143],[37.60756373,55.76117692],[37.60711312,55.76080869],[37.60660887,55.76038311],[37.60590076,55.75986094],[37.6054877,55.75958626],[37.60543942,55.7595259],[37.60543942,55.75947157],[37.60546088,55.75933272],[37.60544479,55.75925726],[37.60538578,55.75914256],[37.60505319,55.75888298],[37.60498345,55.75880751],[37.60457575,55.75820986],[37.60435045,55.75792008],[37.60353506,55.75696019],[37.60345995,55.75686359],[37.60280013,55.75694811],[37.6018399,55.75706282],[37.59996235,55.75735864],[37.59873927,55.75753069],[37.59876609,55.75763031],[37.59879827,55.75767558],[37.59965122,55.75854491],[37.60008037,55.75899164],[37.60132492,55.76024125],[37.60252118,55.76146365],[37.60347068,55.7611407],[37.60398567,55.76095357],[37.60499954,55.76044649],[37.60452747,55.76016881],[37.60444164,55.76012957],[37.60529459,55.75955306],[37.60543942,55.75947157],[37.60546088,55.75933272],[37.60544479,55.75925726],[37.60538578,55.75914256],[37.60505319,55.75888298],[37.60498345,55.75880751],[37.60457575,55.75820986],[37.60435045,55.75792008],[37.60353506,55.75696019],[37.60345995,55.75686359],[37.6048547,55.75666738],[37.60543942,55.75657381],[37.60626554,55.75641382],[37.60699511,55.75621761],[37.60783732,55.75689981],[37.60841131,55.75737071],[37.60881364,55.75768464],[37.60938764,55.75809214],[37.60975778,55.75832456],[37.60988116,55.75839399],[37.61025131,55.75857509],[37.6116997,55.75920595],[37.61205912,55.75886487]]}},{"type":"Feature","properties":{"id":"osm-loop-2","name":"Центр Москвы · маршрут 2","source":"OpenStreetMap / OpenFreeMap"},"geometry":{"type":"LineString","coordinates":[[37.60640502,55.76415884],[37.60597587,55.76449384],[37.60584176,55.7645874],[37.60568619,55.76468397],[37.60582566,55.76479262],[37.60600269,55.76488618],[37.60663569,55.76516383],[37.6076442,55.76559539],[37.60827184,55.76586399],[37.60861516,55.76601186],[37.60924816,55.76627744],[37.60938764,55.76633176],[37.60952175,55.76637401],[37.60934472,55.76637401],[37.60925889,55.76636495],[37.60915697,55.76633478],[37.60872245,55.76614163],[37.60855079,55.76627744],[37.6084435,55.76634081],[37.60786951,55.76685686],[37.60758519,55.76675426],[37.60698974,55.76652188],[37.60666251,55.76638306],[37.6058042,55.76903265],[37.60591686,55.76901152],[37.60598123,55.76901152],[37.6070863,55.76912619],[37.60861516,55.76930122],[37.60977387,55.76944908],[37.61020839,55.76951245],[37.61028349,55.76953659],[37.61044979,55.769606],[37.61061072,55.76968144],[37.6113832,55.77009786],[37.6115334,55.77016425],[37.61169434,55.77021856],[37.61188209,55.77026986],[37.61282086,55.77055049],[37.61295497,55.77058369],[37.61303544,55.77059576],[37.61295497,55.77058369],[37.61282086,55.77055049],[37.61188209,55.77026986],[37.61169434,55.77021856],[37.61221468,55.76968445],[37.6124239,55.76944606],[37.61308908,55.76862224],[37.61332512,55.7683597],[37.61353433,55.76810622],[37.61360407,55.76800361],[37.61353433,55.76810622],[37.61332512,55.7683597],[37.61308908,55.76862224],[37.61306763,55.76858],[37.61303008,55.76855284],[37.61297643,55.76852568],[37.61253655,55.76838083],[37.61234879,55.7683084],[37.61087358,55.76782557],[37.61054635,55.76771693],[37.60916233,55.7672703],[37.60895848,55.76720693],[37.60873854,55.76714657],[37.60925353,55.76669088],[37.60930181,55.76660638],[37.60931253,55.7665581],[37.60931253,55.76650378],[37.60928035,55.76643738],[37.60923743,55.76639513],[37.60915697,55.76633478],[37.60872245,55.76614163],[37.60790169,55.76579156],[37.60773003,55.7657312],[37.60753691,55.76567386],[37.60731697,55.76560747],[37.60595441,55.76502199],[37.60568082,55.76492239],[37.60540187,55.76483487],[37.60520339,55.76477451],[37.60556817,55.76457231],[37.60575056,55.7644697],[37.60586858,55.76439123],[37.60612607,55.76418902],[37.60740817,55.76319004],[37.60822892,55.76251398],[37.6090765,55.76181376],[37.6095432,55.76139423],[37.60979533,55.76114975],[37.6105088,55.76042235],[37.61093259,55.76000884],[37.6116997,55.75920595],[37.61192501,55.75928141],[37.61091113,55.76031067],[37.60979533,55.76140932],[37.60926425,55.76188318],[37.60899067,55.76211558],[37.60839522,55.76259547],[37.60640502,55.76415884]]}},{"type":"Feature","properties":{"id":"osm-loop-3","name":"Центр Москвы · маршрут 3","source":"OpenStreetMap / OpenFreeMap"},"geometry":{"type":"LineString","coordinates":[[37.6085937,55.75455128],[37.60850251,55.75444563],[37.60804653,55.75369394],[37.60748863,55.75274904],[37.60743499,55.75267658],[37.60545015,55.75278828],[37.60348678,55.75289696],[37.6020062,55.75296338],[37.60182381,55.75296942],[37.60135174,55.75299055],[37.60106742,55.75299659],[37.60101378,55.75435506],[37.60100305,55.75446072],[37.60093868,55.75466298],[37.60075629,55.75493768],[37.60064363,55.75507051],[37.60052562,55.7551822],[37.60045052,55.75529087],[37.59991407,55.75596706],[37.59876609,55.75732845],[37.59872854,55.75740693],[37.59872854,55.75748542],[37.59873927,55.75753069],[37.59843886,55.75752768],[37.59829402,55.75752164],[37.59795606,55.75749447],[37.59773076,55.75746127],[37.5973016,55.75736166],[37.59702802,55.75731034],[37.59671152,55.75728015],[37.59643793,55.75726808],[37.59648085,55.75707489],[37.59657204,55.75693906],[37.59796143,55.75586443],[37.59657204,55.75693906],[37.59648085,55.75707489],[37.59643793,55.75726808],[37.59671152,55.75728015],[37.59702802,55.75731034],[37.5973016,55.75736166],[37.59773076,55.75746127],[37.59795606,55.75749447],[37.59829402,55.75752164],[37.59843886,55.75752768],[37.59873927,55.75753069],[37.59996235,55.75735864],[37.6018399,55.75706282],[37.60280013,55.75694811],[37.60345995,55.75686359],[37.6048547,55.75666738],[37.60543942,55.75657381],[37.60626554,55.75641382],[37.60699511,55.75621761],[37.60783732,55.75689981],[37.60841131,55.75737071],[37.60881364,55.75768464],[37.60938764,55.75809214],[37.60975778,55.75832456],[37.60988116,55.75839399],[37.61025131,55.75857509],[37.6116997,55.75920595],[37.61192501,55.75928141],[37.61091113,55.76031067],[37.60979533,55.76140932],[37.60926425,55.76188318],[37.60899067,55.76211558],[37.60839522,55.76259547],[37.60640502,55.76415884],[37.60597587,55.76449384],[37.60584176,55.7645874],[37.60568619,55.76468397],[37.60540187,55.76483487],[37.60441482,55.76536],[37.60261238,55.76633478],[37.60170043,55.76683875],[37.6007241,55.76737592],[37.60003209,55.76774409],[37.59934008,55.76811829],[37.59821892,55.7687339],[37.59677052,55.7695728],[37.59590149,55.77017934],[37.59531677,55.77054144],[37.59503245,55.7707074],[37.59415805,55.7712234],[37.59301007,55.77189629],[37.59211421,55.77242433],[37.59145975,55.77280754],[37.59073019,55.773236],[37.59062827,55.77315755],[37.5919801,55.77237304],[37.59314418,55.77168809],[37.59405077,55.77116003],[37.59495735,55.77062291],[37.59571373,55.77014312],[37.59592295,55.76999828],[37.59661496,55.76950641],[37.59672761,55.76942796],[37.59728014,55.7691111],[37.59911478,55.7681032],[37.59806871,55.76752379],[37.59798288,55.76746646],[37.59792387,55.76739101],[37.59780049,55.7671013],[37.59776831,55.76705302],[37.59772539,55.76701982],[37.59764493,55.76698059],[37.59616435,55.7664072],[37.59599805,55.76636194],[37.5958854,55.76633779],[37.59673297,55.76576741],[37.59803653,55.76490429],[37.59660959,55.76452704],[37.59648621,55.76449988],[37.5953275,55.7643188],[37.59522021,55.76429465],[37.59368598,55.76381478],[37.59392738,55.76364577],[37.59449065,55.76318702],[37.59516656,55.76260151],[37.59571373,55.76281278],[37.59614289,55.76301197],[37.59650767,55.76319306],[37.59658813,55.76323833],[37.59768248,55.76380271],[37.59989262,55.76224537],[37.5991255,55.76152703],[37.59812236,55.7605793],[37.59806871,55.76053704],[37.59797215,55.76049177],[37.59678662,55.76002393],[37.59703875,55.75967983],[37.59714603,55.75958325],[37.59812236,55.75888901],[37.59818673,55.75884977],[37.59863734,55.75862339],[37.59835303,55.75827928],[37.59799361,55.75782953],[37.5979507,55.75774199],[37.59792387,55.75763332],[37.5979346,55.75755484],[37.59795606,55.75749447],[37.59829402,55.75752164],[37.59843886,55.75752768],[37.59873927,55.75753069],[37.59996235,55.75735864],[37.6018399,55.75706282],[37.60280013,55.75694811],[37.60345995,55.75686359],[37.6048547,55.75666738],[37.60543942,55.75657381],[37.60626554,55.75641382],[37.60699511,55.75621761],[37.60783732,55.75689981],[37.60841131,55.75737071],[37.60881364,55.75768464],[37.60938764,55.75809214],[37.60975778,55.75832456],[37.60988116,55.75839399],[37.61025131,55.75857509],[37.6116997,55.75920595],[37.61192501,55.75928141],[37.61091113,55.76031067],[37.60979533,55.76140932],[37.60926425,55.76188318],[37.6090765,55.76181376],[37.6081109,55.76146365],[37.60794461,55.76139423],[37.60769248,55.76126143],[37.60756373,55.76117692],[37.60711312,55.76080869],[37.60660887,55.76038311],[37.60590076,55.75986094],[37.6054877,55.75958626],[37.60543942,55.7595259],[37.60543942,55.75947157],[37.60546088,55.75933272],[37.60544479,55.75925726],[37.60538578,55.75914256],[37.60505319,55.75888298],[37.60498345,55.75880751],[37.60457575,55.75820986],[37.60435045,55.75792008],[37.60353506,55.75696019],[37.60345995,55.75686359],[37.6048547,55.75666738],[37.60543942,55.75657381],[37.60626554,55.75641382],[37.60699511,55.75621761],[37.60727942,55.75613007],[37.60953248,55.75538445],[37.60894775,55.75486825],[37.60874927,55.75469015],[37.6085937,55.75455128]]}},{"type":"Feature","properties":{"id":"osm-loop-4","name":"Центр Москвы · маршрут 4","source":"OpenStreetMap / OpenFreeMap"},"geometry":{"type":"LineString","coordinates":[[37.61404395,55.75754579],[37.6134485,55.75787481],[37.61331439,55.7579714],[37.61316419,55.75809818],[37.61238635,55.75883166],[37.61192501,55.75928141],[37.6116997,55.75920595],[37.61205912,55.75886487],[37.61251509,55.75848454],[37.61271894,55.7582974],[37.61305153,55.75797744],[37.61319101,55.75786877],[37.61341631,55.75772086],[37.61360943,55.75761219],[37.61408687,55.75735864],[37.61471987,55.75704169],[37.61482179,55.75699037],[37.61495054,55.75695113],[37.61496127,55.7570115],[37.61494517,55.75705678],[37.61491299,55.75710206],[37.61483788,55.75714734],[37.61451602,55.7573043],[37.61404395,55.75754579],[37.6134485,55.75787481],[37.61331439,55.7579714],[37.61316419,55.75809818],[37.61238635,55.75883166],[37.61192501,55.75928141],[37.61091113,55.76031067],[37.60979533,55.76140932],[37.60926425,55.76188318],[37.60899067,55.76211558],[37.60839522,55.76259547],[37.60640502,55.76415884],[37.60597587,55.76449384],[37.60584176,55.7645874],[37.60568619,55.76468397],[37.60582566,55.76479262],[37.60600269,55.76488618],[37.60663569,55.76516383],[37.6076442,55.76559539],[37.60827184,55.76586399],[37.60861516,55.76601186],[37.60924816,55.76627744],[37.60938764,55.76633176],[37.60952175,55.76637401],[37.60976315,55.7664404],[37.60996699,55.76650981],[37.61102915,55.76695645],[37.61197865,55.76735782],[37.6124078,55.76753586],[37.61343777,55.76797344],[37.61360407,55.76800361],[37.61353433,55.76810622],[37.61332512,55.7683597],[37.61308908,55.76862224],[37.61306763,55.76858],[37.61303008,55.76855284],[37.61297643,55.76852568],[37.61253655,55.76838083],[37.61234879,55.7683084],[37.61087358,55.76782557],[37.61054635,55.76771693],[37.60916233,55.7672703],[37.60895848,55.76720693],[37.60873854,55.76714657],[37.60925353,55.76669088],[37.60930181,55.76660638],[37.60931253,55.7665581],[37.60931253,55.76650378],[37.60928035,55.76643738],[37.60923743,55.76639513],[37.60915697,55.76633478],[37.60872245,55.76614163],[37.60790169,55.76579156],[37.60773003,55.7657312],[37.60753691,55.76567386],[37.60731697,55.76560747],[37.60595441,55.76502199],[37.60568082,55.76492239],[37.60540187,55.76483487],[37.60520339,55.76477451],[37.60556817,55.76457231],[37.60568619,55.76468397],[37.60582566,55.76479262],[37.60600269,55.76488618],[37.60663569,55.76516383],[37.6076442,55.76559539],[37.60827184,55.76586399],[37.60861516,55.76601186],[37.60924816,55.76627744],[37.60938764,55.76633176],[37.60952175,55.76637401],[37.60976315,55.7664404],[37.60996699,55.76650981],[37.61102915,55.76695645],[37.61197865,55.76735782],[37.6124078,55.76753586],[37.61343777,55.76797344],[37.61360407,55.76800361],[37.61353433,55.76810622],[37.61332512,55.7683597],[37.61308908,55.76862224],[37.61306763,55.76858],[37.61303008,55.76855284],[37.61297643,55.76852568],[37.61253655,55.76838083],[37.61234879,55.7683084],[37.61087358,55.76782557],[37.61054635,55.76771693],[37.60916233,55.7672703],[37.60895848,55.76720693],[37.60873854,55.76714657],[37.60925353,55.76669088],[37.60930181,55.76660638],[37.60931253,55.7665581],[37.60931253,55.76650378],[37.60928035,55.76643738],[37.60923743,55.76639513],[37.60915697,55.76633478],[37.60872245,55.76614163],[37.60790169,55.76579156],[37.60773003,55.7657312],[37.60753691,55.76567386],[37.60731697,55.76560747],[37.60595441,55.76502199],[37.60568082,55.76492239],[37.60540187,55.76483487],[37.60520339,55.76477451],[37.60556817,55.76457231],[37.60575056,55.7644697],[37.60586858,55.76439123],[37.60612607,55.76418902],[37.60740817,55.76319004],[37.60822892,55.76251398],[37.6090765,55.76181376],[37.6095432,55.76139423],[37.60979533,55.76114975],[37.6105088,55.76042235],[37.61093259,55.76000884],[37.6116997,55.75920595],[37.61205912,55.75886487],[37.61251509,55.75848454],[37.61271894,55.7582974],[37.61305153,55.75797744],[37.61319101,55.75786877],[37.61341631,55.75772086],[37.61360943,55.75761219],[37.61408687,55.75735864],[37.61471987,55.75704169],[37.61482179,55.75699037],[37.61495054,55.75695113],[37.61496127,55.7570115],[37.61494517,55.75705678],[37.61491299,55.75710206],[37.61483788,55.75714734],[37.61451602,55.7573043],[37.61404395,55.75754579]]}}]}